STARLINK-36264
1 68307U 26057P   26090.83335647 -.01410777  59120-3 -35578-2 0  9999
2 68307  97.2774 214.2233 0001387  83.3946 152.2035 15.95658902  2933
